{
  "type": "FeatureCollection",
  "features": [
    {
      "type": "Feature",
      "properties": {
        "norad_id": 19071,
        "name": "OSCAR 32",
        "group": "nnss",
        "lat": -26.95942795718623,
        "lon": 16.591642044318633,
        "alt_km": 1290.9108593065712,
        "timestamp": "2025-12-09T14:52:26.430468+00:00",
        "meta_object_name": "OSCAR 32",
        "meta_object_id": "1988-033B",
        "meta_epoch": "2025-12-09T07:50:13.518240",
        "meta_mean_motion": 13.27953385,
        "meta_eccentricity": 0.01880802,
        "meta_inclination": 90.322,
        "meta_ra_of_asc_node": 16.4186,
        "meta_arg_of_pericenter": 176.2707,
        "meta_mean_anomaly": 195.1563,
        "meta_ephemeris_type": 0,
        "meta_classification_type": "U",
        "meta_norad_cat_id": 19071,
        "meta_element_set_no": 999,
        "meta_rev_at_epoch": 82220,
        "meta_bstar": 0.00020745371,
        "meta_mean_motion_dot": 1.12e-06,
        "meta_mean_motion_ddot": 0,
        "tle_line1": "1 19071U 88033B   25343.32654535  .00000112  00000+0  20745-3 0  9994",
        "tle_line2": "2 19071  90.3220  16.4186 0188080 176.2707 195.1563 13.27953385822207"
      },
      "geometry": {
        "type": "Point",
        "coordinates": [
          16.591642044318633,
          -26.95942795718623
        ]
      }
    },
    {
      "type": "Feature",
      "properties": {
        "norad_id": 19223,
        "name": "NOVA 2",
        "group": "nnss",
        "lat": -45.78814232809468,
        "lon": -101.71045228091796,
        "alt_km": 1202.1662444006788,
        "timestamp": "2025-12-09T14:52:26.430478+00:00",
        "meta_object_name": "NOVA 2",
        "meta_object_id": "1988-052A",
        "meta_epoch": "2025-12-09T06:45:01.612224",
        "meta_mean_motion": 13.22935399,
        "meta_eccentricity": 0.00308766,
        "meta_inclination": 89.9871,
        "meta_ra_of_asc_node": 78.2767,
        "meta_arg_of_pericenter": 26.2774,
        "meta_mean_anomaly": 28.4408,
        "meta_ephemeris_type": 0,
        "meta_classification_type": "U",
        "meta_norad_cat_id": 19223,
        "meta_element_set_no": 999,
        "meta_rev_at_epoch": 80902,
        "meta_bstar": 0.00023236111,
        "meta_mean_motion_dot": 1.07e-06,
        "meta_mean_motion_ddot": 0,
        "tle_line1": "1 19223U 88052A   25343.28126866  .00000107  00000+0  23236-3 0  9992",
        "tle_line2": "2 19223  89.9871  78.2767 0030876  26.2774  28.4408 13.22935399809021"
      },
      "geometry": {
        "type": "Point",
        "coordinates": [
          -101.71045228091796,
          -45.78814232809468
        ]
      }
    },
    {
      "type": "Feature",
      "properties": {
        "norad_id": 19419,
        "name": "OSCAR 25",
        "group": "nnss",
        "lat": 81.063536048103,
        "lon": 20.011890359816736,
        "alt_km": 1162.3308716684387,
        "timestamp": "2025-12-09T14:52:26.430489+00:00",
        "meta_object_name": "OSCAR 25",
        "meta_object_id": "1988-074A",
        "meta_epoch": "2025-12-09T04:03:49.083840",
        "meta_mean_motion": 13.42622336,
        "meta_eccentricity": 0.00943128,
        "meta_inclination": 90.0349,
        "meta_ra_of_asc_node": 20.2324,
        "meta_arg_of_pericenter": 256.2044,
        "meta_mean_anomaly": 169.1401,
        "meta_ephemeris_type": 0,
        "meta_classification_type": "U",
        "meta_norad_cat_id": 19419,
        "meta_element_set_no": 999,
        "meta_rev_at_epoch": 82592,
        "meta_bstar": 0.00022175598,
        "meta_mean_motion_dot": 1.37e-06,
        "meta_mean_motion_ddot": 0,
        "tle_line1": "1 19419U 88074A   25343.16931810  .00000137  00000+0  22176-3 0  9998",
        "tle_line2": "2 19419  90.0349  20.2324 0094312 256.2044 169.1401 13.42622336825926"
      },
      "geometry": {
        "type": "Point",
        "coordinates": [
          20.011890359816736,
          81.063536048103
        ]
      }
    },
    {
      "type": "Feature",
      "properties": {
        "norad_id": 19420,
        "name": "OSCAR 31",
        "group": "nnss",
        "lat": -33.665767058899974,
        "lon": 20.607914924140605,
        "alt_km": 1090.1576467928007,
        "timestamp": "2025-12-09T14:52:26.430499+00:00",
        "meta_object_name": "OSCAR 31",
        "meta_object_id": "1988-074B",
        "meta_epoch": "2025-12-09T04:38:54.525696",
        "meta_mean_motion": 13.42583784,
        "meta_eccentricity": 0.00925908,
        "meta_inclination": 90.0367,
        "meta_ra_of_asc_node": 20.5819,
        "meta_arg_of_pericenter": 250.2365,
        "meta_mean_anomaly": 177.0861,
        "meta_ephemeris_type": 0,
        "meta_classification_type": "U",
        "meta_norad_cat_id": 19420,
        "meta_element_set_no": 999,
        "meta_rev_at_epoch": 82603,
        "meta_bstar": 0.00019415559,
        "meta_mean_motion_dot": 1.21e-06,
        "meta_mean_motion_ddot": 0,
        "tle_line1": "1 19420U 88074B   25343.19368664  .00000121  00000+0  19416-3 0  9990",
        "tle_line2": "2 19420  90.0367  20.5819 0092590 250.2365 177.0861 13.42583784826030"
      },
      "geometry": {
        "type": "Point",
        "coordinates": [
          20.607914924140605,
          -33.665767058899974
        ]
      }
    }
  ]
}